TLE2=2 25994  97.9567 134.2040 0003377 124.6822 309.7981 14.61027505396919
TLE2=2 26070  71.0007  71.4557 0016113 170.4422 189.7011 14.15823732350330
TLE2=2 27386  98.3749  34.1500 0001271  81.8976 292.7223 14.39041050260924
TLE2=2 25544  51.6343  10.6992 0006186 218.8034 141.2511 15.48444672558264
TLE2=2 25732  98.6601 125.0670 0036186 310.3577 102.7585 14.18267665389927
TLE2=2 25861  97.9940 140.2014 0014048 212.6268 147.4078 14.81747868438705
TLE2=2 25977  98.1681 343.8347 0002106  57.6164 302.5255 14.87745207687126
TLE2=2 27422  98.5884  19.4023 0012283 146.5907 213.6054 14.31034007245777
TLE2=2 25407  71.0118 155.0841 0007614 348.0463  12.0478 14.16195529428883
TLE2=2 26474  67.9919   5.6496 0039391  20.8459 339.4285 15.09676421394785
TLE2=2 25876  51.7600 251.3689 0502612  25.2876 337.1773 14.11867020364799
TLE2=2 25860  97.9416 140.8530 0000937  79.7759 280.3559 14.80354485436224
